[{"OBJECT_NAME":"STARLINK-3297","OBJECT_ID":"2021-125D","EPOCH":"2026-03-09T18:16:46.289568","MEAN_MOTION":15.08837403,"ECCENTRICITY":0.00014564,"INCLINATION":53.2175,"RA_OF_ASC_NODE":258.8095,"ARG_OF_PERICENTER":97.4511,"MEAN_ANOMALY":262.6647,"EPHEMERIS_TYPE":0,"CLASSIFICATION_TYPE":"U","NORAD_CAT_ID":50159,"ELEMENT_SET_NO":999,"REV_AT_EPOCH":23646,"BSTAR":5.074044e-6,"MEAN_MOTION_DOT":-2.07e-6,"MEAN_MOTION_DDOT":0},{"OBJECT_NAME":"FENGYUN 1C DEB","OBJECT_ID":"1999-025CCL","EPOCH":"2026-03-06T03:34:06.810816","MEAN_MOTION":14.54899177,"ECCENTRICITY":0.02544592,"INCLINATION":98.8002,"RA_OF_ASC_NODE":183.6648,"ARG_OF_PERICENTER":134.2479,"MEAN_ANOMALY":227.9915,"EPHEMERIS_TYPE":0,"CLASSIFICATION_TYPE":"U","NORAD_CAT_ID":31678,"ELEMENT_SET_NO":999,"REV_AT_EPOCH":98051,"BSTAR":0.0019572837,"MEAN_MOTION_DOT":0.00012976,"MEAN_MOTION_DDOT":0}]
